{
  "type": "FeatureCollection",
  "features": [
    {
      "type": "Feature",
      "properties": {
        "norad_id": 66629,
        "name": "STARLINK-35956",
        "group": "last-30-days",
        "lat": 50.42577029438664,
        "lon": -98.70030794420028,
        "alt_km": 385.82758993076914,
        "timestamp": "2025-12-10T20:49:51.345762+00:00",
        "meta_object_name": "STARLINK-35956",
        "meta_object_id": "2025-271N",
        "meta_epoch": "2025-12-10T14:00:03.000384",
        "meta_mean_motion": 15.59335965,
        "meta_eccentricity": 0.00011561,
        "meta_inclination": 53.1602,
        "meta_ra_of_asc_node": 197.5745,
        "meta_arg_of_pericenter": 124.1077,
        "meta_mean_anomaly": 152.5352,
        "meta_ephemeris_type": 0,
        "meta_classification_type": "U",
        "meta_norad_cat_id": 66629,
        "meta_element_set_no": 999,
        "meta_rev_at_epoch": 389,
        "meta_bstar": -0.028013094,
        "meta_mean_motion_dot": -0.01976775,
        "meta_mean_motion_ddot": 0,
        "tle_line1": "1 66629U 25271N   25344.58336806 -.01976775  00000+0 -28013-1 0  9991",
        "tle_line2": "2 66629  53.1602 197.5745 0001156 124.1077 152.5352 15.59335965  3895"
      },
      "geometry": {
        "type": "Point",
        "coordinates": [
          -98.70030794420028,
          50.42577029438664
        ]
      }
    },
    {
      "type": "Feature",
      "properties": {
        "norad_id": 66630,
        "name": "STARLINK-35949",
        "group": "last-30-days",
        "lat": 51.038323483154464,
        "lon": -95.82443979248251,
        "alt_km": 385.77590968419554,
        "timestamp": "2025-12-10T20:49:51.345774+00:00",
        "meta_object_name": "STARLINK-35949",
        "meta_object_id": "2025-271P",
        "meta_epoch": "2025-12-10T14:00:03.000384",
        "meta_mean_motion": 15.59339511,
        "meta_eccentricity": 0.0001027,
        "meta_inclination": 53.1601,
        "meta_ra_of_asc_node": 197.5693,
        "meta_arg_of_pericenter": 122.5971,
        "meta_mean_anomaly": 155.964,
        "meta_ephemeris_type": 0,
        "meta_classification_type": "U",
        "meta_norad_cat_id": 66630,
        "meta_element_set_no": 999,
        "meta_rev_at_epoch": 389,
        "meta_bstar": -0.028140995,
        "meta_mean_motion_dot": -0.01984836,
        "meta_mean_motion_ddot": 0,
        "tle_line1": "1 66630U 25271P   25344.58336806 -.01984836  00000+0 -28141-1 0  9992",
        "tle_line2": "2 66630  53.1601 197.5693 0001027 122.5971 155.9640 15.59339511  3898"
      },
      "geometry": {
        "type": "Point",
        "coordinates": [
          -95.82443979248251,
          51.038323483154464
        ]
      }
    },
    {
      "type": "Feature",
      "properties": {
        "norad_id": 66631,
        "name": "STARLINK-35965",
        "group": "last-30-days",
        "lat": 51.57649417568261,
        "lon": -92.88477225020466,
        "alt_km": 385.7552996407594,
        "timestamp": "2025-12-10T20:49:51.345784+00:00",
        "meta_object_name": "STARLINK-35965",
        "meta_object_id": "2025-271Q",
        "meta_epoch": "2025-12-10T14:00:03.000384",
        "meta_mean_motion": 15.59330946,
        "meta_eccentricity": 9.387e-05,
        "meta_inclination": 53.1601,
        "meta_ra_of_asc_node": 197.5662,
        "meta_arg_of_pericenter": 107.9045,
        "meta_mean_anomaly": 172.5737,
        "meta_ephemeris_type": 0,
        "meta_classification_type": "U",
        "meta_norad_cat_id": 66631,
        "meta_element_set_no": 999,
        "meta_rev_at_epoch": 389,
        "meta_bstar": -0.027890723,
        "meta_mean_motion_dot": -0.01968713,
        "meta_mean_motion_ddot": 0,
        "tle_line1": "1 66631U 25271Q   25344.58336806 -.01968713  00000+0 -27891-1 0  9990",
        "tle_line2": "2 66631  53.1601 197.5662 0000938 107.9045 172.5737 15.59330946  3899"
      },
      "geometry": {
        "type": "Point",
        "coordinates": [
          -92.88477225020466,
          51.57649417568261
        ]
      }
    },
    {
      "type": "Feature",
      "properties": {
        "norad_id": 66632,
        "name": "STARLINK-35973",
        "group": "last-30-days",
        "lat": 52.041039539496495,
        "lon": -89.8693264978554,
        "alt_km": 385.5384393384247,
        "timestamp": "2025-12-10T20:49:51.345793+00:00",
        "meta_object_name": "STARLINK-35973",
        "meta_object_id": "2025-271R",
        "meta_epoch": "2025-12-10T14:00:03.000384",
        "meta_mean_motion": 15.59337924,
        "meta_eccentricity": 0.00011194,
        "meta_inclination": 53.1602,
        "meta_ra_of_asc_node": 197.5623,
        "meta_arg_of_pericenter": 120.8053,
        "meta_mean_anomaly": 161.5901,
        "meta_ephemeris_type": 0,
        "meta_classification_type": "U",
        "meta_norad_cat_id": 66632,
        "meta_element_set_no": 999,
        "meta_rev_at_epoch": 383,
        "meta_bstar": -0.02809108,
        "meta_mean_motion_dot": -0.01981706,
        "meta_mean_motion_ddot": 0,
        "tle_line1": "1 66632U 25271R   25344.58336806 -.01981706  00000+0 -28091-1 0  9991",
        "tle_line2": "2 66632  53.1602 197.5623 0001119 120.8053 161.5901 15.59337924  3831"
      },
      "geometry": {
        "type": "Point",
        "coordinates": [
          -89.8693264978554,
          52.041039539496495
        ]
      }
    },
    {
      "type": "Feature",
      "properties": {
        "norad_id": 66633,
        "name": "STARLINK-35948",
        "group": "last-30-days",
        "lat": 52.42674852633712,
        "lon": -86.80026822110365,
        "alt_km": 385.4671735488546,
        "timestamp": "2025-12-10T20:49:51.345805+00:00",
        "meta_object_name": "STARLINK-35948",
        "meta_object_id": "2025-271S",
        "meta_epoch": "2025-12-10T14:00:03.000384",
        "meta_mean_motion": 15.59338785,
        "meta_eccentricity": 0.00010755,
        "meta_inclination": 53.1605,
        "meta_ra_of_asc_node": 197.5571,
        "meta_arg_of_pericenter": 117.3306,
        "meta_mean_anomaly": 166.9818,
        "meta_ephemeris_type": 0,
        "meta_classification_type": "U",
        "meta_norad_cat_id": 66633,
        "meta_element_set_no": 999,
        "meta_rev_at_epoch": 389,
        "meta_bstar": -0.028113012,
        "meta_mean_motion_dot": -0.0198309,
        "meta_mean_motion_ddot": 0,
        "tle_line1": "1 66633U 25271S   25344.58336806 -.01983090  00000+0 -28113-1 0  9995",
        "tle_line2": "2 66633  53.1605 197.5571 0001075 117.3306 166.9818 15.59338785  3898"
      },
      "geometry": {
        "type": "Point",
        "coordinates": [
          -86.80026822110365,
          52.42674852633712
        ]
      }
    },
    {
      "type": "Feature",
      "properties": {
        "norad_id": 66634,
        "name": "STARLINK-35967",
        "group": "last-30-days",
        "lat": 52.73063645534978,
        "lon": -83.68637777084078,
        "alt_km": 385.39422168813326,
        "timestamp": "2025-12-10T20:49:51.345815+00:00",
        "meta_object_name": "STARLINK-35967",
        "meta_object_id": "2025-271T",
        "meta_epoch": "2025-12-10T14:00:03.000384",
        "meta_mean_motion": 15.59340761,
        "meta_eccentricity": 0.00011384,
        "meta_inclination": 53.1604,
        "meta_ra_of_asc_node": 197.5529,
        "meta_arg_of_pericenter": 120.0579,
        "meta_mean_anomaly": 166.1696,
        "meta_ephemeris_type": 0,
        "meta_classification_type": "U",
        "meta_norad_cat_id": 66634,
        "meta_element_set_no": 999,
        "meta_rev_at_epoch": 382,
        "meta_bstar": -0.028148523,
        "meta_mean_motion_dot": -0.01985462,
        "meta_mean_motion_ddot": 0,
        "tle_line1": "1 66634U 25271T   25344.58336806 -.01985462  00000+0 -28149-1 0  9990",
        "tle_line2": "2 66634  53.1604 197.5529 0001138 120.0579 166.1696 15.59340761  3820"
      },
      "geometry": {
        "type": "Point",
        "coordinates": [
          -83.68637777084078,
          52.73063645534978
        ]
      }
    },
    {
      "type": "Feature",
      "properties": {
        "norad_id": 66635,
        "name": "STARLINK-35955",
        "group": "last-30-days",
        "lat": 52.95179050486981,
        "lon": -80.534315881372,
        "alt_km": 385.4079778795258,
        "timestamp": "2025-12-10T20:49:51.345824+00:00",
        "meta_object_name": "STARLINK-35955",
        "meta_object_id": "2025-271U",
        "meta_epoch": "2025-12-10T14:00:03.000384",
        "meta_mean_motion": 15.59332894,
        "meta_eccentricity": 0.00010294,
        "meta_inclination": 53.1604,
        "meta_ra_of_asc_node": 197.5493,
        "meta_arg_of_pericenter": 119.9878,
        "meta_mean_anomaly": 168.1575,
        "meta_ephemeris_type": 0,
        "meta_classification_type": "U",
        "meta_norad_cat_id": 66635,
        "meta_element_set_no": 999,
        "meta_rev_at_epoch": 389,
        "meta_bstar": -0.027946532,
        "meta_mean_motion_dot": -0.01972361,
        "meta_mean_motion_ddot": 0,
        "tle_line1": "1 66635U 25271U   25344.58336806 -.01972361  00000+0 -27947-1 0  9990",
        "tle_line2": "2 66635  53.1604 197.5493 0001029 119.9878 168.1575 15.59332894  3892"
      },
      "geometry": {
        "type": "Point",
        "coordinates": [
          -80.534315881372,
          52.95179050486981
        ]
      }
    }
  ]
}